# MetarJ
MetarJ is a project of Java library used to decode and encode weather report from text METAR/SPECI format, 
like _METAR LKPR 281330Z 25013KT CAVOK 22/12 Q1013 NOSIG_ into set of objects, and back. 

Current implementation support encoding/decoding of EU reports, US reports, canadien reports and russian reports.

To learn more about the project see project Wiki at https://github.com/Engin1980/MetarJ/wiki
