Compare METAR KABQ 271452Z 00000KT 10SM BKN085 BKN200 23/16 A3028 RMK AO2 LTG DSNT E SLP157 SHRA DSNT S AND W 60000 T02330156 53016 -> METAR KABQ 271452Z 00000KT 10SM BKN085 BKN200 23/16 A3027 RMK AO2 LTG DSNT E SLP157 SHRA DSNT S AND W 60000 T02330156 53016
Decode METAR KCID 271352Z 05010 10SM FEW009 24/22 A2999
Compare METAR KDEN 271453Z 13013KT 10SM SCT003 SCT220 21/16 A3025 RMK AO2 SLP170 T02110156 51008 -> METAR KDEN 271453Z 13013KT 10SM SCT003 SCT220 21/16 A3024 RMK AO2 SLP170 T02110156 51008
Decode METAR 
