Decode EBKT
Decode EDBP
Decode EDLE
Decode EFHN
Decode EGED
Decode EGEN
Decode EGFE
Decode EGFH
Compare METAR EGHI 281420Z 22010KT 190V250 5000 -RA FEW007 BKN013 15/13 Q1010  -> METAR EGHI 281420Z 22010KT 190V250 5000 -RA FEW007 BKN013 15/13 Q1010
Compare METAR EGKB 281420Z 21015KT 9999 -RA BKN010 16/14 Q1010  -> METAR EGKB 281420Z 21015KT 9999 -RA BKN010 16/14 Q1010
