Compare METAR KAVL 160854Z AUTO 32005KT 7SM R35/5000VP6000FT OVC002 18/17 A2995 RMK AO2 SLP118 T01830167 55004 -> 
        METAR KAVL 160854Z AUTO 32005KT 7SM R35/5000VP6000 OVC002 18/17 A2995 RMK AO2 SLP118 T01830167 55004
Decode METAR null
Compare METAR KCHA 160905Z AUTO 00000KT 5SM R02/5500VP6000FT BR OVC002 18/18 A2995 RMK AO2 T01830178 $ -> METAR KCHA 160905Z AUTO 00000KT 5SM R02/5500VP6000 BR OVC002 18/18 A2995 RMK AO2 T01830178 $
Decode METAR KMGM 160853Z AUTO 00000KT OVC002 21/18 A2995 RMK AO2 LTG DSNT NW SLP138 T02060183 51002 $
Decode METAR KSUX 160852Z 16/ A2978 RMK AO2 SLPNO T0161 58000 PWINO $
