Compare METAR KCHS 152113Z 07017G25KT 1/8SM R15/5500VP6000FT TSRA BR BKN035CB BKN045 23/20 A2995 RMK AO2 SFC VIS 2 LTG DSNT N-E PRESRR FRQ LTGCGIC ALQDS TS ALQDS MOV SW P0007 T02280200 $ -> METAR KCHS 152113Z 07017G25KT 2/16SM R15/5500V7000 TSRA BR BKN035CB BKN045 23/20 A2995 RMK AO2 SFC VIS 2 LTG DSNT N-E PRESRR FRQ LTGCGIC ALQDS TS ALQDS MOV SW P0007 T02280200 $
Decode METAR KRND 152059Z AUTO 18011G19KT M M M M M RMK AO2 SLPNO $
Compare METAR KSEA 152053Z 14009KT 3SM RA BR FEW005 BKN045 OVC055 16/14 A2986 RMK AO2 SLP117 P0013 60027 T01560139 55002 -> METAR KSEA 152053Z 14009KT 2.0 4/4SM RA BR FEW005 BKN045 OVC055 16/14 A2986 RMK AO2 SLP117 P0013 60027 T01560139 55002
Decode METAR KSUX 152052Z 35004KT 10SM CLR A2982 RMK AO2 SLPNO 58004
