Decode LFCI
Decode LFCP
Decode LFEY
Compare 
METAR LFRO 281400Z AUTO 20013KT 170V240 9999 SCT030 BKN038 BKN045 21/15 Q1013 TEMPO SHRA BKN011 BECMG 23015G30KT -> 
METAR LFRO 281400Z AUTO 20013KT 170V240 9999 SCT030 BKN038 BKN045 21/15 Q1013 TEMPO SHRA BKN011   BECMG 23015G30KT
Decode LGAT
Decode LGAT
Decode LGKA
Compare 
METAR LIEO 281350Z 27013KT 240V310 CAVOK 34/14 Q1014 WS RWY 23 -> 
METAR LIEO 281350Z 27013KT 240V310 CAVOK 34/14 Q1014
Decode LIRJ
Decode LNMC
