Decode EBKT
Decode EDBP
Decode EDLE
Decode EFHN
Decode METAR EFKU 110720Z AUTO VRB03KT 240V340 CAVOK 16/11 Q1012
